{
  "type": "FeatureCollection",
  "features": [
    {
      "type": "Feature",
      "properties": {
        "norad_id": 34079,
        "name": "IRIDIUM 33 DEB",
        "group": "iridium-33-debris",
        "lat": 7.051117044978139,
        "lon": -170.001781368705,
        "alt_km": 624.710895193919,
        "timestamp": "2025-12-08T19:31:49.192595+00:00",
        "meta_object_name": "IRIDIUM 33 DEB",
        "meta_object_id": "1997-051CN",
        "meta_epoch": "2025-12-08T02:52:02.842176",
        "meta_mean_motion": 14.83344707,
        "meta_eccentricity": 0.00061828,
        "meta_inclination": 86.3773,
        "meta_ra_of_asc_node": 10.7628,
        "meta_arg_of_pericenter": 22.6988,
        "meta_mean_anomaly": 44.9869,
        "meta_ephemeris_type": 0,
        "meta_classification_type": "U",
        "meta_norad_cat_id": 34079,
        "meta_element_set_no": 999,
        "meta_rev_at_epoch": 88909,
        "meta_bstar": 0.002019445,
        "meta_mean_motion_dot": 0.00016595,
        "meta_mean_motion_ddot": 0,
        "tle_line1": "1 34079U 97051CN  25342.11947734  .00016595  00000+0  20194-2 0  9990",
        "tle_line2": "2 34079  86.3773  10.7628 0006182  22.6988  44.9869 14.83344707889090"
      },
      "geometry": {
        "type": "Point",
        "coordinates": [
          -170.001781368705,
          7.051117044978139
        ]
      }
    },
    {
      "type": "Feature",
      "properties": {
        "norad_id": 34088,
        "name": "IRIDIUM 33 DEB",
        "group": "iridium-33-debris",
        "lat": 25.699512485900634,
        "lon": -149.21606567424553,
        "alt_km": 590.855890755729,
        "timestamp": "2025-12-08T19:31:49.192604+00:00",
        "meta_object_name": "IRIDIUM 33 DEB",
        "meta_object_id": "1997-051CX",
        "meta_epoch": "2025-12-08T04:36:21.430944",
        "meta_mean_motion": 14.91049632,
        "meta_eccentricity": 0.00053822,
        "meta_inclination": 86.3847,
        "meta_ra_of_asc_node": 32.8131,
        "meta_arg_of_pericenter": 193.7064,
        "meta_mean_anomaly": 224.7024,
        "meta_ephemeris_type": 0,
        "meta_classification_type": "U",
        "meta_norad_cat_id": 34088,
        "meta_element_set_no": 999,
        "meta_rev_at_epoch": 88674,
        "meta_bstar": 0.0030374031,
        "meta_mean_motion_dot": 0.00030182,
        "meta_mean_motion_ddot": 0,
        "tle_line1": "1 34088U 97051CX  25342.19191471  .00030182  00000+0  30374-2 0  9996",
        "tle_line2": "2 34088  86.3847  32.8131 0005382 193.7064 224.7024 14.91049632886740"
      },
      "geometry": {
        "type": "Point",
        "coordinates": [
          -149.21606567424553,
          25.699512485900634
        ]
      }
    },
    {
      "type": "Feature",
      "properties": {
        "norad_id": 34091,
        "name": "IRIDIUM 33 DEB",
        "group": "iridium-33-debris",
        "lat": 63.76141984290396,
        "lon": -118.8274354745112,
        "alt_km": 641.7304837533065,
        "timestamp": "2025-12-08T19:31:49.192613+00:00",
        "meta_object_name": "IRIDIUM 33 DEB",
        "meta_object_id": "1997-051DA",
        "meta_epoch": "2025-12-08T06:02:15.684288",
        "meta_mean_motion": 14.81287717,
        "meta_eccentricity": 0.00331518,
        "meta_inclination": 86.3415,
        "meta_ra_of_asc_node": 68.8884,
        "meta_arg_of_pericenter": 309.4292,
        "meta_mean_anomaly": 50.3997,
        "meta_ephemeris_type": 0,
        "meta_classification_type": "U",
        "meta_norad_cat_id": 34091,
        "meta_element_set_no": 999,
        "meta_rev_at_epoch": 87800,
        "meta_bstar": 0.0057102774,
        "meta_mean_motion_dot": 0.00045211,
        "meta_mean_motion_ddot": 0,
        "tle_line1": "1 34091U 97051DA  25342.25157042  .00045211  00000+0  57103-2 0  9991",
        "tle_line2": "2 34091  86.3415  68.8884 0033151 309.4292  50.3997 14.81287717878002"
      },
      "geometry": {
        "type": "Point",
        "coordinates": [
          -118.8274354745112,
          63.76141984290396
        ]
      }
    },
    {
      "type": "Feature",
      "properties": {
        "norad_id": 34097,
        "name": "IRIDIUM 33 DEB",
        "group": "iridium-33-debris",
        "lat": -55.750416557413175,
        "lon": -2.46149189395123,
        "alt_km": 763.1313848950085,
        "timestamp": "2025-12-08T19:31:49.192622+00:00",
        "meta_object_name": "IRIDIUM 33 DEB",
        "meta_object_id": "1997-051DG",
        "meta_epoch": "2025-12-08T01:22:31.444896",
        "meta_mean_motion": 14.3472041,
        "meta_eccentricity": 0.00831282,
        "meta_inclination": 86.2,
        "meta_ra_of_asc_node": 3.4741,
        "meta_arg_of_pericenter": 17.4272,
        "meta_mean_anomaly": 342.9745,
        "meta_ephemeris_type": 0,
        "meta_classification_type": "U",
        "meta_norad_cat_id": 34097,
        "meta_element_set_no": 999,
        "meta_rev_at_epoch": 87052,
        "meta_bstar": 0.0017150483,
        "meta_mean_motion_dot": 5.068e-05,
        "meta_mean_motion_ddot": 0,
        "tle_line1": "1 34097U 97051DG  25342.05730839  .00005068  00000+0  17150-2 0  9990",
        "tle_line2": "2 34097  86.2000   3.4741 0083128  17.4272 342.9745 14.34720410870527"
      },
      "geometry": {
        "type": "Point",
        "coordinates": [
          -2.46149189395123,
          -55.750416557413175
        ]
      }
    },
    {
      "type": "Feature",
      "properties": {
        "norad_id": 34145,
        "name": "IRIDIUM 33 DEB",
        "group": "iridium-33-debris",
        "lat": 71.31280934821567,
        "lon": 142.976489480854,
        "alt_km": 704.710379796029,
        "timestamp": "2025-12-08T19:31:49.192632+00:00",
        "meta_object_name": "IRIDIUM 33 DEB",
        "meta_object_id": "1997-051DY",
        "meta_epoch": "2025-12-07T23:03:04.751424",
        "meta_mean_motion": 14.42235871,
        "meta_eccentricity": 0.0055559,
        "meta_inclination": 86.2113,
        "meta_ra_of_asc_node": 334.6546,
        "meta_arg_of_pericenter": 109.0134,
        "meta_mean_anomaly": 251.7097,
        "meta_ephemeris_type": 0,
        "meta_classification_type": "U",
        "meta_norad_cat_id": 34145,
        "meta_element_set_no": 999,
        "meta_rev_at_epoch": 87569,
        "meta_bstar": 0.0013920574,
        "meta_mean_motion_dot": 4.693e-05,
        "meta_mean_motion_ddot": 0,
        "tle_line1": "1 34145U 97051DY  25341.96047166  .00004693  00000+0  13921-2 0  9992",
        "tle_line2": "2 34145  86.2113 334.6546 0055559 109.0134 251.7097 14.42235871875691"
      },
      "geometry": {
        "type": "Point",
        "coordinates": [
          142.976489480854,
          71.31280934821567
        ]
      }
    },
    {
      "type": "Feature",
      "properties": {
        "norad_id": 34146,
        "name": "IRIDIUM 33 DEB",
        "group": "iridium-33-debris",
        "lat": 10.574634478253591,
        "lon": -7.769991989392858,
        "alt_km": 743.0899206989734,
        "timestamp": "2025-12-08T19:31:49.192641+00:00",
        "meta_object_name": "IRIDIUM 33 DEB",
        "meta_object_id": "1997-051DZ",
        "meta_epoch": "2025-12-08T01:30:02.867616",
        "meta_mean_motion": 14.4899865,
        "meta_eccentricity": 0.00251477,
        "meta_inclination": 86.2833,
        "meta_ra_of_asc_node": 351.8664,
        "meta_arg_of_pericenter": 238.296,
        "meta_mean_anomaly": 175.9948,
        "meta_ephemeris_type": 0,
        "meta_classification_type": "U",
        "meta_norad_cat_id": 34146,
        "meta_element_set_no": 999,
        "meta_rev_at_epoch": 88039,
        "meta_bstar": 0.0012815499,
        "meta_mean_motion_dot": 4.897e-05,
        "meta_mean_motion_ddot": 0,
        "tle_line1": "1 34146U 97051DZ  25342.06253319  .00004897  00000+0  12815-2 0  9991",
        "tle_line2": "2 34146  86.2833 351.8664 0025147 238.2960 175.9948 14.48998650880397"
      },
      "geometry": {
        "type": "Point",
        "coordinates": [
          -7.769991989392858,
          10.574634478253591
        ]
      }
    },
    {
      "type": "Feature",
      "properties": {
        "norad_id": 34159,
        "name": "IRIDIUM 33 DEB",
        "group": "iridium-33-debris",
        "lat": -53.75632183423427,
        "lon": -125.09107164915027,
        "alt_km": 763.5939475180121,
        "timestamp": "2025-12-08T19:31:49.192651+00:00",
        "meta_object_name": "IRIDIUM 33 DEB",
        "meta_object_id": "1997-051EN",
        "meta_epoch": "2025-12-08T05:05:17.238912",
        "meta_mean_motion": 14.3847703,
        "meta_eccentricity": 0.00260823,
        "meta_inclination": 86.3515,
        "meta_ra_of_asc_node": 50.172,
        "meta_arg_of_pericenter": 303.8092,
        "meta_mean_anomaly": 56.0623,
        "meta_ephemeris_type": 0,
        "meta_classification_type": "U",
        "meta_norad_cat_id": 34159,
        "meta_element_set_no": 999,
        "meta_rev_at_epoch": 87894,
        "meta_bstar": 0.00069541726,
        "meta_mean_motion_dot": 2.15e-05,
        "meta_mean_motion_ddot": 0,
        "tle_line1": "1 34159U 97051EN  25342.21200508  .00002150  00000+0  69542-3 0  9994",
        "tle_line2": "2 34159  86.3515  50.1720 0026082 303.8092  56.0623 14.38477030878945"
      },
      "geometry": {
        "type": "Point",
        "coordinates": [
          -125.09107164915027,
          -53.75632183423427
        ]
      }
    }
  ]
}